$$SOE
2460728.500000000, A.D. 2025-Feb-22 00:00:00.0000, -2.093916501643006E+08, -2.692443830258737E+08, -1.266271410466200E+07,
2460735.500000000, A.D. 2025-Mar-01 00:00:00.0000, -2.004090937333297E+08, -2.769517200683144E+08, -1.279563192412168E+07,
2460742.500000000, A.D. 2025-Mar-08 00:00:00.0000, -1.911835321526738E+08, -2.843233348263108E+08, -1.291303588094091E+07,
2460749.500000000, A.D. 2025-Mar-15 00:00:00.0000, -1.817277060782313E+08, -2.913526057881267E+08, -1.301488921410380E+07,
2460756.500000000, A.D. 2025-Mar-22 00:00:00.0000, -1.720544524548693E+08, -2.980333911382968E+08, -1.310117329052469E+07,
2460763.500000000, A.D. 2025-Mar-29 00:00:00.0000, -1.621766882902619E+08, -3.043600245467022E+08, -1.317188719565755E+07,
2460770.500000000, A.D. 2025-Apr-05 00:00:00.0000, -1.521073935520973E+08, -3.103273096575821E+08, -1.322704740498476E+07,
2460777.500000000, A.D. 2025-Apr-12 00:00:00.0000, -1.418595951028048E+08, -3.159305132379918E+08, -1.326668735348736E+07,
2460784.500000000, A.D. 2025-Apr-19 00:00:00.0000, -1.314463518438801E+08, -3.211653579253602E+08, -1.329085695989937E+07,
2460791.500000000, A.D. 2025-Apr-26 00:00:00.0000, -1.208807407803140E+08, -3.260280148302615E+08, -1.329962214894621E+07,
2460798.500000000, A.D. 2025-May-03 00:00:00.0000, -1.101758438708447E+08, -3.305150960231615E+08, -1.329306438183649E+07,
2460805.500000000, A.D. 2025-May-10 00:00:00.0000, -9.934473561206605E+07, -3.346236469393020E+08, -1.327128019789675E+07,
2460812.500000000, A.D. 2025-May-17 00:00:00.0000, -8.840047129228644E+07, -3.383511387810148E+08, -1.323438077473801E+07,
2460819.500000000, A.D. 2025-May-24 00:00:00.0000, -7.735607570941214E+07, -3.416954610093132E+08, -1.318249152837056E+07,
2460826.500000000, A.D. 2025-May-31 00:00:00.0000, -6.622453190275408E+07, -3.446549136539420E+08, -1.311575176784278E+07,
2460833.500000000, A.D. 2025-Jun-07 00:00:00.0000, -5.501877027147882E+07, -3.472281982771186E+08, -1.303431427081212E+07,
2460840.500000000, A.D. 2025-Jun-14 00:00:00.0000, -4.375166041895340E+07, -3.494144082906646E+08, -1.293834461852954E+07,
2460847.500000000, A.D. 2025-Jun-21 00:00:00.0000, -3.243600447874562E+07, -3.512130219229872E+08, -1.282802066937637E+07,
2460854.500000000, A.D. 2025-Jun-28 00:00:00.0000, -2.108452876341001E+07, -3.526238960942276E+08, -1.270353231357682E+07,
2460861.500000000, A.D. 2025-Jul-05 00:00:00.0000, -9.709875220598942E+06, -3.536472590649250E+08, -1.256508119357471E+07,
2460868.500000000, A.D. 2025-Jul-12 00:00:00.0000, 1.675406145179752E+06, -3.542837026838371E+08, -1.241288034668706E+07,
2460875.500000000, A.D. 2025-Jul-19 00:00:00.0000, 1.305886410616030E+07, -3.545341748293480E+08, -1.224715383466117E+07,
2460882.500000000, A.D. 2025-Jul-26 00:00:00.0000, 2.442815253942109E+07, -3.543999721179847E+08, -1.206813638426408E+07,
2460889.500000000, A.D. 2025-Aug-02 00:00:00.0000, 3.577103634305065E+07, -3.538827328714501E+08, -1.187607304331845E+07,
2460896.500000000, A.D. 2025-Aug-09 00:00:00.0000, 4.707539699253234E+07, -3.529844303670179E+08, -1.167121885562849E+07,
2460903.500000000, A.D. 2025-Aug-16 00:00:00.0000, 5.832923784319477E+07, -3.517073664440218E+08, -1.145383856687868E+07,
2460910.500000000, A.D. 2025-Aug-23 00:00:00.0000, 6.952068949898854E+07, -3.500541654585690E+08, -1.122420638648859E+07,
2460917.500000000, A.D. 2025-Aug-30 00:00:00.0000, 8.063801560282868E+07, -3.480277678787810E+08, -1.098260577652587E+07,
2460924.500000000, A.D. 2025-Sep-06 00:00:00.0000, 9.166961765580256E+07, -3.456314225234954E+08, -1.072932905510947E+07,
2460931.500000000, A.D. 2025-Sep-13 00:00:00.0000, 1.026040372197621E+08, -3.428686799266225E+08, -1.046467686334741E+07,
2460938.500000000, A.D. 2025-Sep-20 00:00:00.0000, 1.134299588030408E+08, -3.397433884697998E+08, -1.018895792996791E+07,
2460945.500000000, A.D. 2025-Sep-27 00:00:00.0000, 1.241362145143466E+08, -3.362596901723197E+08, -9.902488975944802E+06,
2460952.500000000, A.D. 2025-Oct-04 00:00:00.0000, 1.347117884927254E+08, -3.324220155993284E+08, -9.605594529445499E+06,
2460959.500000000, A.D. 2025-Oct-11 00:00:00.0000, 1.451458207632703E+08, -3.282350788292661E+08, -9.298606693274036E+06,
2460966.500000000, A.D. 2025-Oct-18 00:00:00.0000, 1.554276108248990E+08, -3.237038727514482E+08, -8.981864912688971E+06,
2460973.500000000, A.D. 2025-Oct-25 00:00:00.0000, 1.655466211313644E+08, -3.188336646782007E+08, -8.655715754976958E+06,
2460980.500000000, A.D. 2025-Nov-01 00:00:00.0000, 1.754924805252074E+08, -3.136299922497377E+08, -8.320512702725559E+06,
2460987.500000000, A.D. 2025-Nov-08 00:00:00.0000, 1.852549876789579E+08, -3.080986596545067E+08, -7.976615966304973E+06,
2460994.500000000, A.D. 2025-Nov-15 00:00:00.0000, 1.948241147123807E+08, -3.022457342139807E+08, -7.624392333731979E+06,
2461001.500000000, A.D. 2025-Nov-22 00:00:00.0000, 2.041900114101888E+08, -2.960775431040451E+08, -7.264215076456368E+06,
2461008.500000000, A.D. 2025-Nov-29 00:00:00.0000, 2.133430099070100E+08, -2.896006690717404E+08, -6.896463803632841E+06,
2461015.500000000, A.D. 2025-Dec-06 00:00:00.0000, 2.222736275789880E+08, -2.828219452749953E+08, -6.521524066551074E+06,
2461022.500000000, A.D. 2025-Dec-13 00:00:00.0000, 2.309725685908843E+08, -2.757484526024241E+08, -6.139787028113022E+06,
2461029.500000000, A.D. 2025-Dec-20 00:00:00.0000, 2.394307276090919E+08, -2.683875184353405E+08, -5.751649433802754E+06,
2461036.500000000, A.D. 2025-Dec-27 00:00:00.0000, 2.476391946255351E+08, -2.607467142484067E+08, -5.357513573269352E+06,
2461043.500000000, A.D. 2026-Jan-03 00:00:00.0000, 2.555892594509392E+08, -2.528338526526712E+08, -4.957787148181021E+06,
2461050.500000000, A.D. 2026-Jan-10 00:00:00.0000, 2.632724160036966E+08, -2.446569845471408E+08, -4.552883110980898E+06,
2461057.500000000, A.D. 2026-Jan-17 00:00:00.0000, 2.706803666420252E+08, -2.362243964572766E+08, -4.143219502311751E+06,
2461064.500000000, A.D. 2026-Jan-24 00:00:00.0000, 2.778050266298708E+08, -2.275446080240860E+08, -3.729219291267842E+06,
2461071.500000000, A.D. 2026-Jan-31 00:00:00.0000, 2.846385287683358E+08, -2.186263696353638E+08, -3.311310220243335E+06,
2461078.500000000, A.D. 2026-Feb-07 00:00:00.0000, 2.911732282588009E+08, -2.094786602352985E+08, -2.889924664195627E+06,
2461085.500000000, A.D. 2026-Feb-14 00:00:00.0000, 2.974017080571029E+08, -2.001106853001827E+08, -2.465499528709859E+06,
2461092.500000000, A.D. 2026-Feb-21 00:00:00.0000, 3.033167851213205E+08, -1.905318743753550E+08, -2.038476174795046E+06,
2461099.500000000, A.D. 2026-Feb-28 00:00:00.0000, 3.089115164898226E+08, -1.807518770006388E+08, -1.609300175332226E+06,
2461106.500000000, A.D. 2026-Mar-07 00:00:00.0000, 3.141792031475343E+08, -1.707805589612075E+08, -1.178420872271061E+06,
2461113.500000000, A.D. 2026-Mar-14 00:00:00.0000, 3.191133944636527E+08, -1.606280011797397E+08, -7.462911787329093E+05,
2461120.500000000, A.D. 2026-Mar-21 00:00:00.0000, 3.237078949891534E+08, -1.503044983302364E+08, -3.133675516267642E+05,
2461127.500000000, A.D. 2026-Mar-28 00:00:00.0000, 3.279567716105983E+08, -1.398205561220281E+08, 1.198901347905099E+05,
2461134.500000000, A.D. 2026-Apr-04 00:00:00.0000, 3.318543604611878E+08, -1.291868881952331E+08, 5.530187919881791E+05,
2461141.500000000, A.D. 2026-Apr-11 00:00:00.0000, 3.353952738665832E+08, -1.184144129613306E+08, 9.855523434037045E+05,
2461148.500000000, A.D. 2026-Apr-18 00:00:00.0000, 3.385744074879519E+08, -1.075142503679922E+08, 1.417021959812984E+06,
2461155.500000000, A.D. 2026-Apr-25 00:00:00.0000, 3.413869477108800E+08, -9.649771854522590E+07, 1.846956302031033E+06,
2461162.500000000, A.D. 2026-May-02 00:00:00.0000, 3.438283793128715E+08, -8.537633033404712E+07, 2.274881766957261E+06,
2461169.500000000, A.D. 2026-May-09 00:00:00.0000, 3.458944935335706E+08, -7.416178973556581E+07, 2.700322721211184E+06,
2461176.500000000, A.D. 2026-May-16 00:00:00.0000, 3.475813969205093E+08, -6.286598811181495E+07, 3.122801699729357E+06,
2461183.500000000, A.D. 2026-May-23 00:00:00.0000, 3.488855209963090E+08, -5.150099908098899E+07, 3.541839649137812E+06,
2461190.500000000, A.D. 2026-May-30 00:00:00.0000, 3.498036306687496E+08, -4.007907175364493E+07, 3.956956434473418E+06,
2461197.500000000, A.D. 2026-Jun-06 00:00:00.0000, 3.503328310626931E+08, -2.861262555472221E+07, 4.367671372053477E+06,
2461204.500000000, A.D. 2026-Jun-13 00:00:00.0000, 3.504705764253319E+08, -1.711424640030494E+07, 4.773503468807796E+06,
2461211.500000000, A.D. 2026-Jun-20 00:00:00.0000, 3.502146805880482E+08, -5.596681266249644E+06, 5.173971653760146E+06,
2461218.500000000, A.D. 2026-Jun-27 00:00:00.0000, 3.495633272720659E+08, 5.927168547865642E+06, 5.568595130555923E+06,
2461225.500000000, A.D. 2026-Jul-04 00:00:00.0000, 3.485150802208091E+08, 1.744425472043975E+07, 5.956893788516589E+06,
2461232.500000000, A.D. 2026-Jul-11 00:00:00.0000, 3.470688933924060E+08, 2.894138967951950E+07, 6.338388638847820E+06,
2461239.500000000, A.D. 2026-Jul-18 00:00:00.0000, 3.452241212812878E+08, 4.040525490689056E+07, 6.712602270264270E+06,
2461246.500000000, A.D. 2026-Jul-25 00:00:00.0000, 3.429805293665062E+08, 5.182240981435990E+07, 7.079059322703261E+06,
2461253.500000000, A.D. 2026-Aug-01 00:00:00.0000, 3.403383047053433E+08, 6.317930118112212E+07, 7.437286971519504E+06,
2461260.500000000, A.D. 2026-Aug-08 00:00:00.0000, 3.372980668545422E+08, 7.446227315193084E+07, 7.786815400134735E+06,
2461267.500000000, A.D. 2026-Aug-15 00:00:00.0000, 3.338608794945849E+08, 8.565757827947992E+07, 8.127178259913459E+06,
2461274.500000000, A.D. 2026-Aug-22 00:00:00.0000, 3.300282619475573E+08, 9.675139086812940E+07, 8.457913286974266E+06,
2461281.500000000, A.D. 2026-Aug-29 00:00:00.0000, 3.258021982562358E+08, 1.077298212865829E+08, 8.778563175230548E+06,
2461288.500000000, A.D. 2026-Sep-05 00:00:00.0000, 3.211851459168112E+08, 1.185789284131031E+08, 9.088676276430428E+06,
2461295.500000000, A.D. 2026-Sep-12 00:00:00.0000, 3.161800466638831E+08, 1.292847327357792E+08, 9.387807105500326E+06,
$$EOE